[{
    "OBJECT_NAME": "IRIDIUM 33 DEB",
    "OBJECT_ID": "1997-051ABL",
    "EPOCH": "2023-10-29T12:35:32.155008",
    "MEAN_MOTION": 14.39981797,
    "ECCENTRICITY": 0.0009812,
    "INCLINATION": 86.3892,
    "RA_OF_ASC_NODE": 23.2613,
    "ARG_OF_PERICENTER": 113.2269,
    "MEAN_ANOMALY": 308.3281,
    "EPHEMERIS_TYPE": 0,
    "CLASSIFICATION_TYPE": "U",
    "NORAD_CAT_ID": 40998,
    "ELEMENT_SET_NO": 999,
    "REV_AT_EPOCH": 95934,
    "BSTAR": 0.00092684,
    "MEAN_MOTION_DOT": 2.937e-5,
    "MEAN_MOTION_DDOT": 0
},{
    "OBJECT_NAME": "IRIDIUM 33 DEB",
    "OBJECT_ID": "1997-051ABN",
    "EPOCH": "2023-11-01T20:03:48.055968",
    "MEAN_MOTION": 14.01368712,
    "ECCENTRICITY": 0.0283486,
    "INCLINATION": 86.2868,
    "RA_OF_ASC_NODE": 156.97,
    "ARG_OF_PERICENTER": 195.4893,
    "MEAN_ANOMALY": 180.0415,
    "EPHEMERIS_TYPE": 0,
    "CLASSIFICATION_TYPE": "U",
    "NORAD_CAT_ID": 46435,
    "ELEMENT_SET_NO": 999,
    "REV_AT_EPOCH": 59964,
    "BSTAR": 0.0055478,
    "MEAN_MOTION_DOT": 0.00011908,
    "MEAN_MOTION_DDOT": 0
},{
    "OBJECT_NAME": "IRIDIUM 33 DEB",
    "OBJECT_ID": "1997-051ABR",
    "EPOCH": "2023-10-29T10:18:06.181344",
    "MEAN_MOTION": 14.33992523,
    "ECCENTRICITY": 0.0045338,
    "INCLINATION": 86.2697,
    "RA_OF_ASC_NODE": 340.8221,
    "ARG_OF_PERICENTER": 355.3875,
    "MEAN_ANOMALY": 69.2582,
    "EPHEMERIS_TYPE": 0,
    "CLASSIFICATION_TYPE": "U",
    "NORAD_CAT_ID": 46734,
    "ELEMENT_SET_NO": 999,
    "REV_AT_EPOCH": 51869,
    "BSTAR": 0.0011634,
    "MEAN_MOTION_DOT": 3.302e-5,
    "MEAN_MOTION_DDOT": 0
},{
    "OBJECT_NAME": "IRIDIUM 33 DEB",
    "OBJECT_ID": "1997-051ABU",
    "EPOCH": "2023-10-30T13:33:46.158048",
    "MEAN_MOTION": 14.63696777,
    "ECCENTRICITY": 0.0069897,
    "INCLINATION": 86.3354,
    "RA_OF_ASC_NODE": 28.5528,
    "ARG_OF_PERICENTER": 96.8048,
    "MEAN_ANOMALY": 328.5921,
    "EPHEMERIS_TYPE": 0,
    "CLASSIFICATION_TYPE": "U",
    "NORAD_CAT_ID": 46962,
    "ELEMENT_SET_NO": 999,
    "REV_AT_EPOCH": 61717,
    "BSTAR": 0.0041865,
    "MEAN_MOTION_DOT": 0.00022646,
    "MEAN_MOTION_DDOT": 0
},{
    "OBJECT_NAME": "IRIDIUM 33 DEB",
    "OBJECT_ID": "1997-051ACD",
    "EPOCH": "2023-11-01T08:39:29.280384",
    "MEAN_MOTION": 14.5998794,
    "ECCENTRICITY": 0.0015961,
    "INCLINATION": 86.3485,
    "RA_OF_ASC_NODE": 323.2331,
    "ARG_OF_PERICENTER": 89.2365,
    "MEAN_ANOMALY": 333.8071,
    "EPHEMERIS_TYPE": 0,
    "CLASSIFICATION_TYPE": "U",
    "NORAD_CAT_ID": 46971,
    "ELEMENT_SET_NO": 999,
    "REV_AT_EPOCH": 52838,
    "BSTAR": 0.001869,
    "MEAN_MOTION_DOT": 9.004e-5,
    "MEAN_MOTION_DDOT": 0
},{
    "OBJECT_NAME": "IRIDIUM 33 DEB",
    "OBJECT_ID": "1997-051ACE",
    "EPOCH": "2023-10-30T22:32:46.352832",
    "MEAN_MOTION": 14.44609908,
    "ECCENTRICITY": 0.0010972,
    "INCLINATION": 86.3932,
    "RA_OF_ASC_NODE": 10.7081,
    "ARG_OF_PERICENTER": 153.1071,
    "MEAN_ANOMALY": 333.0668,
    "EPHEMERIS_TYPE": 0,
    "CLASSIFICATION_TYPE": "U",
    "NORAD_CAT_ID": 46972,
    "ELEMENT_SET_NO": 999,
    "REV_AT_EPOCH": 66463,
    "BSTAR": 0.00089474,
    "MEAN_MOTION_DOT": 3.117e-5,
    "MEAN_MOTION_DDOT": 0
},{
    "OBJECT_NAME": "IRIDIUM 33 DEB",
    "OBJECT_ID": "1997-051ACF",
    "EPOCH": "2023-10-17T21:10:54.403968",
    "MEAN_MOTION": 14.41181757,
    "ECCENTRICITY": 0.0141802,
    "INCLINATION": 86.3718,
    "RA_OF_ASC_NODE": 146.322,
    "ARG_OF_PERICENTER": 342.8401,
    "MEAN_ANOMALY": 16.8028,
    "EPHEMERIS_TYPE": 0,
    "CLASSIFICATION_TYPE": "U",
    "NORAD_CAT_ID": 46973,
    "ELEMENT_SET_NO": 999,
    "REV_AT_EPOCH": 48662,
    "BSTAR": 0.008218,
    "MEAN_MOTION_DOT": 0.00029993,
    "MEAN_MOTION_DDOT": 0
},{
    "OBJECT_NAME": "IRIDIUM 33 DEB",
    "OBJECT_ID": "1997-051ACJ",
    "EPOCH": "2023-10-22T01:16:22.154880",
    "MEAN_MOTION": 14.21526866,
    "ECCENTRICITY": 0.016287,
    "INCLINATION": 86.4525,
    "RA_OF_ASC_NODE": 207.511,
    "ARG_OF_PERICENTER": 135.5534,
    "MEAN_ANOMALY": 287.2356,
    "EPHEMERIS_TYPE": 0,
    "CLASSIFICATION_TYPE": "U",
    "NORAD_CAT_ID": 46976,
    "ELEMENT_SET_NO": 999,
    "REV_AT_EPOCH": 50538,
    "BSTAR": 0.0052416,
    "MEAN_MOTION_DOT": 0.00013161,
    "MEAN_MOTION_DDOT": 0
},{
    "OBJECT_NAME": "IRIDIUM 33 DEB",
    "OBJECT_ID": "1997-051ACM",
    "EPOCH": "2023-10-29T12:26:42.018432",
    "MEAN_MOTION": 14.44288041,
    "ECCENTRICITY": 0.0059484,
    "INCLINATION": 86.3558,
    "RA_OF_ASC_NODE": 32.6501,
    "ARG_OF_PERICENTER": 2.6183,
    "MEAN_ANOMALY": 357.5318,
    "EPHEMERIS_TYPE": 0,
    "CLASSIFICATION_TYPE": "U",
    "NORAD_CAT_ID": 46979,
    "ELEMENT_SET_NO": 999,
    "REV_AT_EPOCH": 24096,
    "BSTAR": 0.003864,
    "MEAN_MOTION_DOT": 0.00013606,
    "MEAN_MOTION_DDOT": 0
}]