1 40998U 97051ABL 23302.52467772  .00002937  00000-0  92684-3 0  9995
2 40998  86.3892  23.2613 0009812 113.2269 308.3281 14.39981797959342
1 46435U 97051ABN 23305.83597287  .00011908  00000-0  55478-2 0  9996
2 46435  86.2868 156.9700 0283486 195.4893 180.0415 14.01368712485773
1 46734U 97051ABR 23302.42923821  .00003302  00000-0  11634-2 0  9992
2 46734  86.2697 340.8221 0045338 355.3875  69.2582 14.33992523518695
1 46962U 97051ABU 23303.56511757  .00022646  00000-0  41865-2 0  9993
2 46962  86.3354  28.5528 0069897  96.8048 328.5921 14.63696777617170
1 46971U 97051ACD 23305.36075556  .00009004  00000-0  18690-2 0  9998
2 46971  86.3485 323.2331 0015961  89.2365 333.8071 14.59987940528382
1 46972U 97051ACE 23303.93942538  .00003117  00000-0  89474-3 0  9991
2 46972  86.3932  10.7081 0010972 153.1071 333.0668 14.44609908664634
1 46973U 97051ACF 23290.88257412  .00029993  00000-0  82180-2 0  9997
2 46973  86.3718 146.3220 0141802 342.8401  16.8028 14.41181757486620
1 46976U 97051ACJ 23295.05303420  .00013161  00000-0  52416-2 0  9994
2 46976  86.4525 207.5110 0162870 135.5534 287.2356 14.21526866505385
1 46979U 97051ACM 23302.51854188  .00013606  00000-0  38640-2 0  9996
2 46979  86.3558  32.6501 0059484   2.6183 357.5318 14.44288041240968
